#aV2019 10  3  0  0  0.00000000     288 DD+AD WGS84 FIT  NGA
## 2073 345600.00000000   300.00000000 58759 0.0000000000000
+   31     1  2  3  5  6  7  8  9 10 11 12 13 14 15 16 17 18
+         19 20 21 22 23 24 25 26 27 28 29 30 31 32  0  0  0
+          0  0  0  0  0  0  0  0  0  0  0  0  0  0  0  0  0
+          0  0  0  0  0  0  0  0  0  0  0  0  0  0  0  0  0
+          0  0  0  0  0  0  0  0  0  0  0  0  0  0  0  0  0
++         2  2  2  2  2  2  2  2  2  2  2  2  2  2  2  2  2
++         2  2  2  2  2  2  2  2  2  2  2  2  2  2  0  0  0
++         0  0  0  0  0  0  0  0  0  0  0  0  0  0  0  0  0
++         0  0  0  0  0  0  0  0  0  0  0  0  0  0  0  0  0
++         0  0  0  0  0  0  0  0  0  0  0  0  0  0  0  0  0
%c cc cc ccc ccc cccc cccc cccc cccc ccccc ccccc ccccc ccccc
%c cc cc ccc ccc cccc cccc cccc cccc ccccc ccccc ccccc ccccc
%f  0.0000000  0.000000000  0.00000000000  0.000000000000000
%f  0.0000000  0.000000000  0.00000000000  0.000000000000000
%i    0    0    0    0      0      0      0      0         0
%i    0    0    0    0      0      0      0      0         0
/*      NGA, ST. LOUIS,MO.                                  
/*   EPHEMERIS COMPUTED FROM 2 DAYS OF DATA                 
/*   EPOCHA v5 SMOOTHER                                     
/*   G1762 IERS2010 SATAF SATAPC                            
*  2019 10  3 12 25  0.00000000
P  1  20695.433614  11833.083322  11834.603855   -149.614961                    
V  1   8565.324315  12684.635044 -26889.335444     -0.131980                    
P  2 -13222.418759 -21758.459359   8401.816025   -318.108673                    
V  2   8688.849882   5188.838668  29151.826710     -0.080282                    
P  3  15419.915750   1168.074781  21528.177149    -17.857481                    
V  3  -8539.232850  26115.541861   4773.565039     -0.045052                    
P  5  -5694.810959 -20337.706508 -16123.255727     -1.972129                    
V  5   8167.208930 -18742.082671  21131.182753     -0.003519                    
P  6   -322.924323 -19220.107355  18358.325136    -77.856210                    
V  6  16224.906214  16625.133676  17755.725197     -0.127936                    
P  7  16313.705715  -3228.547912 -20528.340135   -119.270316                    
V  7  16639.696043  20792.357395   9349.604489     -0.080116                    
P  8  20520.970102   6624.057398 -15610.451687     -8.614231                    
V  8 -19023.005358   5657.332498 -22352.065825     -0.013256                    
P  9  25145.159233  -7827.971478  -3519.670489    -46.956640                    
V  9   4941.432334   2050.860481  31155.828057     -0.098909                    
P 10 -11375.692808  23412.688847  -4596.721652    -78.920168                    
V 10   -785.761613  -6555.261203 -31238.457874     -0.156107                    
P 11  24877.370060   8150.986608   2875.824629   -489.165906                    
V 11   2161.274221   5971.714829 -30507.336868      0.113163                    
P 12 -13088.191404  -6692.934325  21910.325496    197.825584                    
V 12  11041.394575 -26031.591160  -1186.615027     -0.038331                    
P 13 -11652.205476 -13071.612862 -20105.808331    -40.954310                    
V 13  25108.517472  -2680.596879 -12816.821575      0.021419                    
P 14  -3303.378543  15550.404922  21580.432498    -58.106406                    
V 14 -26560.597075   2425.371385  -6083.312830      0.020244                    
P 15 -21787.987792  -5113.274659 -14875.041836   -282.560575                    
V 15  16877.302357  -7564.098777 -22163.485047      0.027278                    
P 16   1896.799867  21344.978832 -15587.292933    -79.803831                    
V 16  -9579.348996  17172.912106  23046.844986     -0.035551                    
P 17  13547.387309 -14146.056219  18314.297357    137.205967                    
V 17  22332.194832  -1954.686336 -18532.246695      0.071478                    
P 18  19906.773262  17242.369711   3326.798497     90.325759                    
V 18   1256.800009   5504.462130 -31203.422139      0.028325                    
P 19   6986.909989 -14564.951944  20790.689721   -258.845481                    
V 19  26974.846459  -1747.522382 -10118.125796      0.052327                    
P 20 -14277.017957  17462.549101 -13983.025030    527.080388                    
V 20    772.515802 -17955.301362 -23568.230538      0.001350                    
P 21 -12624.450653   8535.245471 -20955.183721   -108.527956                    
V 21 -19676.751689 -20674.358028   3497.665028      0.063335                    
P 22  13721.667363   9447.837943  20919.564353   -760.662223                    
V 22  -7314.215198  25147.448652  -6533.658409     -0.034178                    
P 23  25699.216376    228.834565   7807.194894   -163.519149                    
V 23  -8582.051804   4671.132165  29030.087039      0.021057                    
P 24 -21639.301647 -12584.748240   9215.729540     -2.941362                    
V 24  -6137.083223 -10577.192250 -27999.583626     -0.004465                    
P 25 -16534.221870   9196.626327  18321.770508    -14.325555                    
V 25   6306.749312 -22978.242767  17276.805773     -0.011538                    
P 26  -3466.086153  25530.643688  -6041.023148     53.072628                    
V 26  -5361.970433   6394.044443  30361.796902      0.086761                    
P 27   8753.764617  13058.948558 -21566.808483    -75.552995                    
V 27 -26437.642218   5551.220388  -7113.922412     -0.123132                    
P 28  12696.629840 -23094.577151  -3120.027945    760.295595                    
V 28     29.702546   5162.076871 -31791.926739     -0.012519                    
P 29 -26159.583312   4394.973970  -1635.735840     81.262671                    
V 29  -2261.939368  -1716.077482  32199.535972     -0.102007                    
P 30   8164.237123 -14172.983282 -20862.948690    -53.672209                    
V 30  17382.925652  20258.343037  -7142.664136     -0.080810                    
P 31   1290.644905  20239.828840  16896.390803      6.187888                    
V 31 -15355.451684 -15416.194748  20071.724024     -0.025844                    
P 32 -12933.815510  15203.139302  17520.683544     78.592135                    
V 32 -22102.339689   2636.073534 -18792.039892      0.132207                    
EOF
